{
    "CCSDS_OMM_VERS": "3.0",
    "COMMENT": "GENERATED VIA SPACE-TRACK.ORG API",
    "CREATION_DATE": "2025-11-23T23:06:32",
    "ORIGINATOR": "18 SPCS",
    "OBJECT_NAME": "BEIDOU 3M14",
    "OBJECT_ID": "2018-072B",
    "CENTER_NAME": "EARTH",
    "REF_FRAME": "TEME",
    "TIME_SYSTEM": "UTC",
    "MEAN_ELEMENT_THEORY": "SGP4",
    "EPOCH": "2025-11-23T17:56:17.330784",
    "MEAN_MOTION": "1.86230944",
    "ECCENTRICITY": "0.00028490",
    "INCLINATION": "56.4446",
    "RA_OF_ASC_NODE": "69.4434",
    "ARG_OF_PERICENTER": "340.5341",
    "MEAN_ANOMALY": "19.4593",
    "EPHEMERIS_TYPE": "0",
    "CLASSIFICATION_TYPE": "U",
    "NORAD_CAT_ID": "43623",
    "ELEMENT_SET_NO": "999",
    "REV_AT_EPOCH": "4882",
    "BSTAR": "0.00000000000000",
    "MEAN_MOTION_DOT": "-0.00000025",
    "MEAN_MOTION_DDOT": "0.0000000000000",
    "SEMIMAJOR_AXIS": "27906.194",
    "PERIOD": "773.233",
    "APOAPSIS": "21536.010",
    "PERIAPSIS": "21520.109",
    "OBJECT_TYPE": "PAYLOAD",
    "RCS_SIZE": "LARGE",
    "COUNTRY_CODE": "PRC",
    "LAUNCH_DATE": "2018-09-19",
    "SITE": "XSC",
    "DECAY_DATE": null,
    "FILE": "4896385",
    "GP_ID": "303352677",
    "TLE_LINE0": "0 BEIDOU 3M14",
    "TLE_LINE1": "1 43623U 18072B   25327.74742281 -.00000025  00000-0  00000+0 0  9997",
    "TLE_LINE2": "2 43623  56.4446  69.4434 0002849 340.5341  19.4593  1.86230944 48822"
}